[{"OBJECT_NAME":"CREW DRAGON 12","OBJECT_ID":"2026-031A","EPOCH":"2026-03-08T09:59:22.309152","MEAN_MOTION":15.48526204,"ECCENTRICITY":0.00080653,"INCLINATION":51.6319,"RA_OF_ASC_NODE":78.6521,"ARG_OF_PERICENTER":170.0958,"MEAN_ANOMALY":190.019,"EPHEMERIS_TYPE":0,"CLASSIFICATION_TYPE":"U","NORAD_CAT_ID":67796,"ELEMENT_SET_NO":999,"REV_AT_EPOCH":55602,"BSTAR":0.00021617095,"MEAN_MOTION_DOT":0.00011291,"MEAN_MOTION_DDOT":0}]
